[{"OBJECT_NAME":"STARLINK-3890","OBJECT_ID":"2022-049E","EPOCH":"2026-03-09T10:29:07.156032","MEAN_MOTION":15.08832427,"ECCENTRICITY":0.00013228,"INCLINATION":53.2171,"RA_OF_ASC_NODE":70.2571,"ARG_OF_PERICENTER":88.4768,"MEAN_ANOMALY":271.6376,"EPHEMERIS_TYPE":0,"CLASSIFICATION_TYPE":"U","NORAD_CAT_ID":52455,"ELEMENT_SET_NO":999,"REV_AT_EPOCH":21207,"BSTAR":-6.1410786e-5,"MEAN_MOTION_DOT":-1.265e-5,"MEAN_MOTION_DDOT":0},{"OBJECT_NAME":"OBJECT G","OBJECT_ID":"2026-027G","EPOCH":"2026-03-09T21:53:37.288032","MEAN_MOTION":15.12145257,"ECCENTRICITY":0.00120269,"INCLINATION":97.4906,"RA_OF_ASC_NODE":197.8999,"ARG_OF_PERICENTER":227.3105,"MEAN_ANOMALY":132.7114,"EPHEMERIS_TYPE":0,"CLASSIFICATION_TYPE":"U","NORAD_CAT_ID":67752,"ELEMENT_SET_NO":999,"REV_AT_EPOCH":389,"BSTAR":0.00053594907,"MEAN_MOTION_DOT":9.195e-5,"MEAN_MOTION_DDOT":0}]
